ONEWEB-0116             
1 48046U 21025E   26092.17754470 -.00000282  00000+0 -80841-3 0  9993
2 48046  87.9015 335.3446 0001729  85.3169 274.8157 13.13470611243676
ONEWEB-0150             
1 48047U 21025F   26092.23002480 -.00000217  00000+0 -62962-3 0  9990
2 48047  87.9014 335.3322 0001548  79.2545 280.8759 13.13468540243570
ONEWEB-0107             
1 48048U 21025G   26092.23172109 -.00000217  00000+0 -62889-3 0  9995
2 48048  87.9014 335.3268 0001729  71.4725 288.6592 13.13471443243550
ONEWEB-0101             
1 48049U 21025H   26092.19447938  .00000368  00000+0  97160-3 0  9991
2 48049  87.9005 335.3576 0001829  77.1698 282.9636 13.13472680243523
ONEWEB-0113             
1 48050U 21025J   26092.09240509 -.00000188  00000+0 -54579-3 0  9996
2 48050  87.9014 335.2951 0001699  93.2372 266.8952 13.13951054243613
ONEWEB-0112             
1 48051U 21025K   26092.23679211 -.00000238  00000+0 -68802-3 0  9999
2 48051  87.9016 335.3230 0001940  76.1288 284.0057 13.13468904243628
ONEWEB-0156             
1 48052U 21025L   26092.09290317 -.00000399  00000+0 -11280-2 0  9995
2 48052  87.9015 335.3626 0001672  76.7297 283.4019 13.13470374243585
ONEWEB-0161             
1 48053U 21025M   26092.21987249  .00000055  00000+0  11604-3 0  9995
2 48053  87.9007 335.3447 0001652  73.3085 286.8226 13.13468341243537
ONEWEB-0158             
1 48054U 21025N   26092.17923590 -.00000246  00000+0 -70763-3 0  9995
2 48054  87.9016 335.3455 0001914  88.7223 271.4125 13.13470362243659
ONEWEB-0157             
1 48055U 21025P   26092.20463280  .00000353  00000+0  93166-3 0  9994
2 48055  87.9014 335.3450 0001804  67.9721 292.1600 13.13472172243595
ONEWEB-0162             
1 48056U 21025Q   26092.18081179  .00000086  00000+0  20150-3 0  9991
2 48056  87.9011 335.3536 0001576  79.1494 280.9812 13.13470354243563
ONEWEB-0155             
1 48057U 21025R   26092.18770712  .00000256  00000+0  66566-3 0  9990
2 48057  87.9007 335.3499 0001833  76.1875 283.9458 13.13472701243706
ONEWEB-0149             
1 48058U 21025S   26092.20971935  .00000316  00000+0  83140-3 0  9998
2 48058  87.9012 335.3441 0001482  79.2283 280.9013 13.13468769243519
ONEWEB-0148             
1 48059U 21025T   26092.17247315 -.00000100  00000+0 -30976-3 0  9995
2 48059  87.9007 335.3642 0001215  68.6206 291.5052 13.13469951243636
ONEWEB-0160             
1 48060U 21025U   26092.18940645  .00000277  00000+0  72487-3 0  9990
2 48060  87.9003 335.3570 0001931 103.8793 256.2551 13.13470260243583
ONEWEB-0163             
1 48061U 21025V   26092.17415677 -.00000380  00000+0 -10763-2 0  9997
2 48061  87.9008 335.3530 0001811  70.9478 289.1848 13.13470286243702
