[{"OBJECT_NAME":"ONEWEB-0116","OBJECT_ID":"2021-025E","EPOCH":"2026-04-02T04:15:39.862080","MEAN_MOTION":13.13470611,"ECCENTRICITY":0.0001729,"INCLINATION":87.9015,"RA_OF_ASC_NODE":335.3446,"ARG_OF_PERICENTER":85.3169,"MEAN_ANOMALY":274.8157,"EPHEMERIS_TYPE":0,"CLASSIFICATION_TYPE":"U","NORAD_CAT_ID":48046,"ELEMENT_SET_NO":999,"REV_AT_EPOCH":24367,"BSTAR":-0.00080841,"MEAN_MOTION_DOT":-2.82e-06,"MEAN_MOTION_DDOT":0.0},{"OBJECT_NAME":"ONEWEB-0150","OBJECT_ID":"2021-025F","EPOCH":"2026-04-02T05:31:14.142720","MEAN_MOTION":13.1346854,"ECCENTRICITY":0.0001548,"INCLINATION":87.9014,"RA_OF_ASC_NODE":335.3322,"ARG_OF_PERICENTER":79.2545,"MEAN_ANOMALY":280.8759,"EPHEMERIS_TYPE":0,"CLASSIFICATION_TYPE":"U","NORAD_CAT_ID":48047,"ELEMENT_SET_NO":999,"REV_AT_EPOCH":24357,"BSTAR":-0.00062962,"MEAN_MOTION_DOT":-2.17e-06,"MEAN_MOTION_DDOT":0.0},{"OBJECT_NAME":"ONEWEB-0107","OBJECT_ID":"2021-025G","EPOCH":"2026-04-02T05:33:40.702176","MEAN_MOTION":13.13471443,"ECCENTRICITY":0.0001729,"INCLINATION":87.9014,"RA_OF_ASC_NODE":335.3268,"ARG_OF_PERICENTER":71.4725,"MEAN_ANOMALY":288.6592,"EPHEMERIS_TYPE":0,"CLASSIFICATION_TYPE":"U","NORAD_CAT_ID":48048,"ELEMENT_SET_NO":999,"REV_AT_EPOCH":24355,"BSTAR":-0.00062889,"MEAN_MOTION_DOT":-2.17e-06,"MEAN_MOTION_DDOT":0.0},{"OBJECT_NAME":"ONEWEB-0101","OBJECT_ID":"2021-025H","EPOCH":"2026-04-02T04:40:03.018432","MEAN_MOTION":13.1347268,"ECCENTRICITY":0.0001829,"INCLINATION":87.9005,"RA_OF_ASC_NODE":335.3576,"ARG_OF_PERICENTER":77.1698,"MEAN_ANOMALY":282.9636,"EPHEMERIS_TYPE":0,"CLASSIFICATION_TYPE":"U","NORAD_CAT_ID":48049,"ELEMENT_SET_NO":999,"REV_AT_EPOCH":24352,"BSTAR":0.0009716000000000001,"MEAN_MOTION_DOT":3.68e-06,"MEAN_MOTION_DDOT":0.0},{"OBJECT_NAME":"ONEWEB-0113","OBJECT_ID":"2021-025J","EPOCH":"2026-04-02T02:13:03.799776","MEAN_MOTION":13.13951054,"ECCENTRICITY":0.0001699,"INCLINATION":87.9014,"RA_OF_ASC_NODE":335.2951,"ARG_OF_PERICENTER":93.2372,"MEAN_ANOMALY":266.8952,"EPHEMERIS_TYPE":0,"CLASSIFICATION_TYPE":"U","NORAD_CAT_ID":48050,"ELEMENT_SET_NO":999,"REV_AT_EPOCH":24361,"BSTAR":-0.00054579,"MEAN_MOTION_DOT":-1.88e-06,"MEAN_MOTION_DDOT":0.0},{"OBJECT_NAME":"ONEWEB-0112","OBJECT_ID":"2021-025K","EPOCH":"2026-04-02T05:40:58.838304","MEAN_MOTION":13.13468904,"ECCENTRICITY":0.000194,"INCLINATION":87.9016,"RA_OF_ASC_NODE":335.323,"ARG_OF_PERICENTER":76.1288,"MEAN_ANOMALY":284.0057,"EPHEMERIS_TYPE":0,"CLASSIFICATION_TYPE":"U","NORAD_CAT_ID":48051,"ELEMENT_SET_NO":999,"REV_AT_EPOCH":24362,"BSTAR":-0.00068802,"MEAN_MOTION_DOT":-2.38e-06,"MEAN_MOTION_DDOT":0.0},{"OBJECT_NAME":"ONEWEB-0156","OBJECT_ID":"2021-025L","EPOCH":"2026-04-02T02:13:46.833888","MEAN_MOTION":13.13470374,"ECCENTRICITY":0.0001672,"INCLINATION":87.9015,"RA_OF_ASC_NODE":335.3626,"ARG_OF_PERICENTER":76.7297,"MEAN_ANOMALY":283.4019,"EPHEMERIS_TYPE":0,"CLASSIFICATION_TYPE":"U","NORAD_CAT_ID":48052,"ELEMENT_SET_NO":999,"REV_AT_EPOCH":24358,"BSTAR":-0.001128,"MEAN_MOTION_DOT":-3.99e-06,"MEAN_MOTION_DDOT":0.0},{"OBJECT_NAME":"ONEWEB-0161","OBJECT_ID":"2021-025M","EPOCH":"2026-04-02T05:16:36.983136","MEAN_MOTION":13.13468341,"ECCENTRICITY":0.0001652,"INCLINATION":87.9007,"RA_OF_ASC_NODE":335.3447,"ARG_OF_PERICENTER":73.3085,"MEAN_ANOMALY":286.8226,"EPHEMERIS_TYPE":0,"CLASSIFICATION_TYPE":"U","NORAD_CAT_ID":48053,"ELEMENT_SET_NO":999,"REV_AT_EPOCH":24353,"BSTAR":0.00011604000000000001,"MEAN_MOTION_DOT":5.5e-07,"MEAN_MOTION_DDOT":0.0},{"OBJECT_NAME":"ONEWEB-0158","OBJECT_ID":"2021-025N","EPOCH":"2026-04-02T04:18:05.981760","MEAN_MOTION":13.13470362,"ECCENTRICITY":0.0001914,"INCLINATION":87.9016,"RA_OF_ASC_NODE":335.3455,"ARG_OF_PERICENTER":88.7223,"MEAN_ANOMALY":271.4125,"EPHEMERIS_TYPE":0,"CLASSIFICATION_TYPE":"U","NORAD_CAT_ID":48054,"ELEMENT_SET_NO":999,"REV_AT_EPOCH":24365,"BSTAR":-0.00070763,"MEAN_MOTION_DOT":-2.46e-06,"MEAN_MOTION_DDOT":0.0},{"OBJECT_NAME":"ONEWEB-0157","OBJECT_ID":"2021-025P","EPOCH":"2026-04-02T04:54:40.273920","MEAN_MOTION":13.13472172,"ECCENTRICITY":0.0001804,"INCLINATION":87.9014,"RA_OF_ASC_NODE":335.345,"ARG_OF_PERICENTER":67.9721,"MEAN_ANOMALY":292.16,"EPHEMERIS_TYPE":0,"CLASSIFICATION_TYPE":"U","NORAD_CAT_ID":48055,"ELEMENT_SET_NO":999,"REV_AT_EPOCH":24359,"BSTAR":0.0009316600000000001,"MEAN_MOTION_DOT":3.53e-06,"MEAN_MOTION_DDOT":0.0},{"OBJECT_NAME":"ONEWEB-0162","OBJECT_ID":"2021-025Q","EPOCH":"2026-04-02T04:20:22.138656","MEAN_MOTION":13.13470354,"ECCENTRICITY":0.0001576,"INCLINATION":87.9011,"RA_OF_ASC_NODE":335.3536,"ARG_OF_PERICENTER":79.1494,"MEAN_ANOMALY":280.9812,"EPHEMERIS_TYPE":0,"CLASSIFICATION_TYPE":"U","NORAD_CAT_ID":48056,"ELEMENT_SET_NO":999,"REV_AT_EPOCH":24356,"BSTAR":0.00020150000000000002,"MEAN_MOTION_DOT":8.6e-07,"MEAN_MOTION_DDOT":0.0},{"OBJECT_NAME":"ONEWEB-0155","OBJECT_ID":"2021-025R","EPOCH":"2026-04-02T04:30:17.895168","MEAN_MOTION":13.13472701,"ECCENTRICITY":0.0001833,"INCLINATION":87.9007,"RA_OF_ASC_NODE":335.3499,"ARG_OF_PERICENTER":76.1875,"MEAN_ANOMALY":283.9458,"EPHEMERIS_TYPE":0,"CLASSIFICATION_TYPE":"U","NORAD_CAT_ID":48057,"ELEMENT_SET_NO":999,"REV_AT_EPOCH":24370,"BSTAR":0.00066566,"MEAN_MOTION_DOT":2.56e-06,"MEAN_MOTION_DDOT":0.0},{"OBJECT_NAME":"ONEWEB-0149","OBJECT_ID":"2021-025S","EPOCH":"2026-04-02T05:01:59.751840","MEAN_MOTION":13.13468769,"ECCENTRICITY":0.0001482,"INCLINATION":87.9012,"RA_OF_ASC_NODE":335.3441,"ARG_OF_PERICENTER":79.2283,"MEAN_ANOMALY":280.9013,"EPHEMERIS_TYPE":0,"CLASSIFICATION_TYPE":"U","NORAD_CAT_ID":48058,"ELEMENT_SET_NO":999,"REV_AT_EPOCH":24351,"BSTAR":0.0008314,"MEAN_MOTION_DOT":3.16e-06,"MEAN_MOTION_DDOT":0.0},{"OBJECT_NAME":"ONEWEB-0148","OBJECT_ID":"2021-025T","EPOCH":"2026-04-02T04:08:21.680160","MEAN_MOTION":13.13469951,"ECCENTRICITY":0.0001215,"INCLINATION":87.9007,"RA_OF_ASC_NODE":335.3642,"ARG_OF_PERICENTER":68.6206,"MEAN_ANOMALY":291.5052,"EPHEMERIS_TYPE":0,"CLASSIFICATION_TYPE":"U","NORAD_CAT_ID":48059,"ELEMENT_SET_NO":999,"REV_AT_EPOCH":24363,"BSTAR":-0.00030975999999999996,"MEAN_MOTION_DOT":-1e-06,"MEAN_MOTION_DDOT":0.0},{"OBJECT_NAME":"ONEWEB-0160","OBJECT_ID":"2021-025U","EPOCH":"2026-04-02T04:32:44.717280","MEAN_MOTION":13.1347026,"ECCENTRICITY":0.0001931,"INCLINATION":87.9003,"RA_OF_ASC_NODE":335.357,"ARG_OF_PERICENTER":103.8793,"MEAN_ANOMALY":256.2551,"EPHEMERIS_TYPE":0,"CLASSIFICATION_TYPE":"U","NORAD_CAT_ID":48060,"ELEMENT_SET_NO":999,"REV_AT_EPOCH":24358,"BSTAR":0.0007248700000000001,"MEAN_MOTION_DOT":2.77e-06,"MEAN_MOTION_DDOT":0.0},{"OBJECT_NAME":"ONEWEB-0163","OBJECT_ID":"2021-025V","EPOCH":"2026-04-02T04:10:47.144928","MEAN_MOTION":13.13470286,"ECCENTRICITY":0.0001811,"INCLINATION":87.9008,"RA_OF_ASC_NODE":335.353,"ARG_OF_PERICENTER":70.9478,"MEAN_ANOMALY":289.1848,"EPHEMERIS_TYPE":0,"CLASSIFICATION_TYPE":"U","NORAD_CAT_ID":48061,"ELEMENT_SET_NO":999,"REV_AT_EPOCH":24370,"BSTAR":-0.0010763,"MEAN_MOTION_DOT":-3.8e-06,"MEAN_MOTION_DDOT":0.0}]